{"fetched_at":"2026-07-13T18:17:00.685Z","source":"https://celestrak.org/NORAD/elements/gp.php?NAME=ICEYE&FORMAT=JSON","constellation":"iceye","records":[{"OBJECT_NAME":"ICEYE-X40","OBJECT_ID":"2024-149CK","EPOCH":"2026-07-12T18:03:31.995360","CLASSIFICATION_TYPE":"U","MEAN_MOTION":14.98059522,"ECCENTRICITY":0.00042713,"INCLINATION":97.68,"RA_OF_ASC_NODE":269.8364,"ARG_OF_PERICENTER":12.3091,"MEAN_ANOMALY":347.8235,"EPHEMERIS_TYPE":0,"NORAD_CAT_ID":60549,"ELEMENT_SET_NO":999,"REV_AT_EPOCH":10390,"BSTAR":0.00011788187,"MEAN_MOTION_DOT":0.00001336,"MEAN_MOTION_DDOT":0},{"OBJECT_NAME":"ICEYE-X49","OBJECT_ID":"2024-247H","EPOCH":"2026-07-13T04:14:03.828480","CLASSIFICATION_TYPE":"U","MEAN_MOTION":15.13607836,"ECCENTRICITY":0.00014144,"INCLINATION":44.9964,"RA_OF_ASC_NODE":218.5738,"ARG_OF_PERICENTER":240.3333,"MEAN_ANOMALY":119.7404,"EPHEMERIS_TYPE":0,"NORAD_CAT_ID":62384,"ELEMENT_SET_NO":999,"REV_AT_EPOCH":8611,"BSTAR":0.00009348533,"MEAN_MOTION_DOT":0.0000145,"MEAN_MOTION_DDOT":0},{"OBJECT_NAME":"ICEYE-X47","OBJECT_ID":"2024-247N","EPOCH":"2026-07-12T11:48:47.039040","CLASSIFICATION_TYPE":"U","MEAN_MOTION":15.13479183,"ECCENTRICITY":0.00017006,"INCLINATION":44.9951,"RA_OF_ASC_NODE":221.8234,"ARG_OF_PERICENTER":333.9502,"MEAN_ANOMALY":26.129,"EPHEMERIS_TYPE":0,"NORAD_CAT_ID":62389,"ELEMENT_SET_NO":999,"REV_AT_EPOCH":8601,"BSTAR":0.000094639096,"MEAN_MOTION_DOT":0.00001465,"MEAN_MOTION_DDOT":0},{"OBJECT_NAME":"ICEYE-X42","OBJECT_ID":"2025-009CT","EPOCH":"2026-07-13T03:56:11.556096","CLASSIFICATION_TYPE":"U","MEAN_MOTION":14.91849723,"ECCENTRICITY":0.00012891,"INCLINATION":97.7391,"RA_OF_ASC_NODE":272.0109,"ARG_OF_PERICENTER":96.9101,"MEAN_ANOMALY":263.2265,"EPHEMERIS_TYPE":0,"NORAD_CAT_ID":62698,"ELEMENT_SET_NO":999,"REV_AT_EPOCH":8116,"BSTAR":0.00012661597,"MEAN_MOTION_DOT":0.00001223,"MEAN_MOTION_DDOT":0},{"OBJECT_NAME":"ICEYE-X41","OBJECT_ID":"2025-009CV","EPOCH":"2026-07-13T04:59:51.855648","CLASSIFICATION_TYPE":"U","MEAN_MOTION":14.96906367,"ECCENTRICITY":0.00004408,"INCLINATION":97.7062,"RA_OF_ASC_NODE":273.3572,"ARG_OF_PERICENTER":315.0342,"MEAN_ANOMALY":45.0844,"EPHEMERIS_TYPE":0,"NORAD_CAT_ID":62700,"ELEMENT_SET_NO":999,"REV_AT_EPOCH":8130,"BSTAR":0.00013555938,"MEAN_MOTION_DOT":0.00001498,"MEAN_MOTION_DDOT":0},{"OBJECT_NAME":"ICEYE-X45","OBJECT_ID":"2025-009DA","EPOCH":"2026-07-12T19:08:47.036832","CLASSIFICATION_TYPE":"U","MEAN_MOTION":15.00851672,"ECCENTRICITY":0.00010857,"INCLINATION":97.8401,"RA_OF_ASC_NODE":280.6954,"ARG_OF_PERICENTER":80.6151,"MEAN_ANOMALY":279.5195,"EPHEMERIS_TYPE":0,"NORAD_CAT_ID":62705,"ELEMENT_SET_NO":999,"REV_AT_EPOCH":8152,"BSTAR":0.00022899293,"MEAN_MOTION_DOT":0.0000285,"MEAN_MOTION_DDOT":0},{"OBJECT_NAME":"ICEYE-X44","OBJECT_ID":"2025-009DC","EPOCH":"2026-07-12T18:26:17.911968","CLASSIFICATION_TYPE":"U","MEAN_MOTION":14.96158757,"ECCENTRICITY":0.00026517,"INCLINATION":97.7059,"RA_OF_ASC_NODE":272.4901,"ARG_OF_PERICENTER":78.2141,"MEAN_ANOMALY":281.9377,"EPHEMERIS_TYPE":0,"NORAD_CAT_ID":62707,"ELEMENT_SET_NO":999,"REV_AT_EPOCH":10376,"BSTAR":0.00021498292,"MEAN_MOTION_DOT":0.00002364,"MEAN_MOTION_DDOT":0},{"OBJECT_NAME":"ICEYE-X48","OBJECT_ID":"2025-052AV","EPOCH":"2026-07-12T16:56:13.186752","CLASSIFICATION_TYPE":"U","MEAN_MOTION":14.9811643,"ECCENTRICITY":0.00037415,"INCLINATION":97.6839,"RA_OF_ASC_NODE":85.5013,"ARG_OF_PERICENTER":110.2798,"MEAN_ANOMALY":249.8827,"EPHEMERIS_TYPE":0,"NORAD_CAT_ID":63253,"ELEMENT_SET_NO":999,"REV_AT_EPOCH":7249,"BSTAR":0.00014214086,"MEAN_MOTION_DOT":0.00001625,"MEAN_MOTION_DDOT":0},{"OBJECT_NAME":"ICEYE-X50","OBJECT_ID":"2025-052AX","EPOCH":"2026-07-13T06:07:46.051104","CLASSIFICATION_TYPE":"U","MEAN_MOTION":14.95361674,"ECCENTRICITY":0.00034407,"INCLINATION":97.6861,"RA_OF_ASC_NODE":85.647,"ARG_OF_PERICENTER":105.8162,"MEAN_ANOMALY":254.3439,"EPHEMERIS_TYPE":0,"NORAD_CAT_ID":63255,"ELEMENT_SET_NO":999,"REV_AT_EPOCH":7254,"BSTAR":0.00011442436,"MEAN_MOTION_DOT":0.00001206,"MEAN_MOTION_DDOT":0},{"OBJECT_NAME":"ICEYE-X51","OBJECT_ID":"2025-052AZ","EPOCH":"2026-07-13T06:12:36.368928","CLASSIFICATION_TYPE":"U","MEAN_MOTION":15.00887541,"ECCENTRICITY":0.00020405,"INCLINATION":97.7607,"RA_OF_ASC_NODE":89.3072,"ARG_OF_PERICENTER":67.7613,"MEAN_ANOMALY":292.3827,"EPHEMERIS_TYPE":0,"NORAD_CAT_ID":63257,"ELEMENT_SET_NO":999,"REV_AT_EPOCH":7271,"BSTAR":0.0002129365,"MEAN_MOTION_DOT":0.00002649,"MEAN_MOTION_DDOT":0},{"OBJECT_NAME":"ICEYE-X46","OBJECT_ID":"2025-052BA","EPOCH":"2026-07-12T15:35:50.229024","CLASSIFICATION_TYPE":"U","MEAN_MOTION":14.95360934,"ECCENTRICITY":0.00017013,"INCLINATION":97.6863,"RA_OF_ASC_NODE":85.0521,"ARG_OF_PERICENTER":84.3638,"MEAN_ANOMALY":275.7777,"EPHEMERIS_TYPE":0,"NORAD_CAT_ID":63258,"ELEMENT_SET_NO":999,"REV_AT_EPOCH":7245,"BSTAR":0.00013201877,"MEAN_MOTION_DOT":0.000014,"MEAN_MOTION_DDOT":0},{"OBJECT_NAME":"ICEYE-X54","OBJECT_ID":"2025-135AU","EPOCH":"2026-07-13T08:02:07.153728","CLASSIFICATION_TYPE":"U","MEAN_MOTION":14.94726006,"ECCENTRICITY":0.00019308,"INCLINATION":97.7744,"RA_OF_ASC_NODE":308.5078,"ARG_OF_PERICENTER":186.7646,"MEAN_ANOMALY":173.3549,"EPHEMERIS_TYPE":0,"NORAD_CAT_ID":64570,"ELEMENT_SET_NO":999,"REV_AT_EPOCH":5780,"BSTAR":0.00018040916,"MEAN_MOTION_DOT":0.00001901,"MEAN_MOTION_DDOT":0},{"OBJECT_NAME":"ICEYE-X52","OBJECT_ID":"2025-135AW","EPOCH":"2026-07-13T07:57:06.154272","CLASSIFICATION_TYPE":"U","MEAN_MOTION":14.93648421,"ECCENTRICITY":0.00010965,"INCLINATION":97.7767,"RA_OF_ASC_NODE":308.2963,"ARG_OF_PERICENTER":194.775,"MEAN_ANOMALY":165.3438,"EPHEMERIS_TYPE":0,"NORAD_CAT_ID":64572,"ELEMENT_SET_NO":999,"REV_AT_EPOCH":5778,"BSTAR":0.00012418916,"MEAN_MOTION_DOT":0.00001255,"MEAN_MOTION_DDOT":0},{"OBJECT_NAME":"ICEYE-X56","OBJECT_ID":"2025-135AY","EPOCH":"2026-07-13T07:45:51.395328","CLASSIFICATION_TYPE":"U","MEAN_MOTION":14.95754651,"ECCENTRICITY":0.00012458,"INCLINATION":97.7764,"RA_OF_ASC_NODE":309.0811,"ARG_OF_PERICENTER":201.111,"MEAN_ANOMALY":159.006,"EPHEMERIS_TYPE":0,"NORAD_CAT_ID":64574,"ELEMENT_SET_NO":999,"REV_AT_EPOCH":5783,"BSTAR":0.00017727036,"MEAN_MOTION_DOT":0.00001918,"MEAN_MOTION_DDOT":0},{"OBJECT_NAME":"ICEYE-X57","OBJECT_ID":"2025-135BC","EPOCH":"2026-07-13T08:01:45.419808","CLASSIFICATION_TYPE":"U","MEAN_MOTION":15.00851758,"ECCENTRICITY":0.00021111,"INCLINATION":97.8018,"RA_OF_ASC_NODE":310.8822,"ARG_OF_PERICENTER":60.4473,"MEAN_ANOMALY":299.6961,"EPHEMERIS_TYPE":0,"NORAD_CAT_ID":64578,"ELEMENT_SET_NO":999,"REV_AT_EPOCH":5794,"BSTAR":0.00021057163,"MEAN_MOTION_DOT":0.00002616,"MEAN_MOTION_DDOT":0},{"OBJECT_NAME":"ICEYE-X55","OBJECT_ID":"2025-135BF","EPOCH":"2026-07-13T07:55:52.849920","CLASSIFICATION_TYPE":"U","MEAN_MOTION":14.95355086,"ECCENTRICITY":0.0001833,"INCLINATION":97.7764,"RA_OF_ASC_NODE":308.9149,"ARG_OF_PERICENTER":243.9526,"MEAN_ANOMALY":116.1506,"EPHEMERIS_TYPE":0,"NORAD_CAT_ID":64581,"ELEMENT_SET_NO":999,"REV_AT_EPOCH":5782,"BSTAR":0.00019308669,"MEAN_MOTION_DOT":0.00002072,"MEAN_MOTION_DDOT":0}]}
