ICEYE-X40               
1 60549U 24149CK  26193.75245365  .00001336  00000+0  11788-3 0  9992
2 60549  97.6800 269.8364 0004271  12.3091 347.8235 14.98059522103904
ICEYE-X49               
1 62384U 24247H   26194.17643320  .00001450  00000+0  93485-4 0  9992
2 62384  44.9964 218.5738 0001414 240.3333 119.7404 15.13607836 86115
ICEYE-X47               
1 62389U 24247N   26193.49221110  .00001465  00000+0  94639-4 0  9998
2 62389  44.9951 221.8234 0001700 333.9502  26.1290 15.13479183 86014
ICEYE-X42               
1 62698U 25009CT  26194.16402264  .00001223  00000+0  12662-3 0  9991
2 62698  97.7391 272.0109 0001289  96.9101 263.2265 14.91849723 81166
ICEYE-X41               
1 62700U 25009CV  26194.20823907  .00001498  00000+0  13556-3 0  9998
2 62700  97.7062 273.3572 0000440 315.0342  45.0844 14.96906367 81301
ICEYE-X45               
1 62705U 25009DA  26193.79776663  .00002850  00000+0  22899-3 0  9995
2 62705  97.8401 280.6954 0001085  80.6151 279.5195 15.00851672 81529
ICEYE-X44               
1 62707U 25009DC  26193.76826287  .00002364  00000+0  21498-3 0  9996
2 62707  97.7059 272.4901 0002651  78.2141 281.9377 14.96158757103760
ICEYE-X48               
1 63253U 25052AV  26193.70570818  .00001625  00000+0  14214-3 0  9998
2 63253  97.6839  85.5013 0003741 110.2798 249.8827 14.98116430 72497
ICEYE-X50               
1 63255U 25052AX  26194.25539411  .00001206  00000+0  11442-3 0  9990
2 63255  97.6861  85.6470 0003440 105.8162 254.3439 14.95361674 72548
ICEYE-X51               
1 63257U 25052AZ  26194.25875427  .00002649  00000+0  21294-3 0  9990
2 63257  97.7607  89.3072 0002040  67.7613 292.3827 15.00887541 72715
ICEYE-X46               
1 63258U 25052BA  26193.64988691  .00001400  00000+0  13202-3 0  9995
2 63258  97.6863  85.0521 0001701  84.3638 275.7777 14.95360934 72451
ICEYE-X54               
1 64570U 25135AU  26194.33480502  .00001901  00000+0  18041-3 0  9992
2 64570  97.7744 308.5078 0001930 186.7646 173.3549 14.94726006 57805
ICEYE-X52               
1 64572U 25135AW  26194.33132123  .00001255  00000+0  12419-3 0  9992
2 64572  97.7767 308.2963 0001096 194.7750 165.3438 14.93648421 57788
ICEYE-X56               
1 64574U 25135AY  26194.32351152  .00001918  00000+0  17727-3 0  9991
2 64574  97.7764 309.0811 0001245 201.1110 159.0060 14.95754651 57839
ICEYE-X57               
1 64578U 25135BC  26194.33455347  .00002616  00000+0  21057-3 0  9994
2 64578  97.8018 310.8822 0002111  60.4473 299.6961 15.00851758 57945
ICEYE-X55               
1 64581U 25135BF  26194.33047280  .00002072  00000+0  19309-3 0  9994
2 64581  97.7764 308.9149 0001833 243.9526 116.1506 14.95355086 57824
